Partner Name,Partner Address,Partner Website,Fave Partner Site,Contact Information,Country,Location,Latitude,Longitude,Accept FavePay
AA Retreat Beauty & Wellness,,,https://myfave.com/kuala-lumpur/partners/aa-retreat-beauty-wellness,,Malaysia,Kuala Lumpur,,,false
Aaroma Beauty Centre,,https://www.aaroma.com.my/,https://myfave.com/kuala-lumpur/partners/aaroma-beauty-centre,,Malaysia,Kuala Lumpur,,,false
ABE MAT RESTORAN,,https://www.facebook.com/abematrestaurants/,https://myfave.com/kuala-lumpur/partners/abe-mat-restoran,,Malaysia,Kuala Lumpur,,,false
Aboong,"Gurney Plaza, 170, Persiaran Gurney, Pulau Tikus, 10250 George Town, Pulau Pinang, Malaysia",,https://myfave.com/kuala-lumpur/partners/aboong,,Malaysia,Kuala Lumpur,5.4383408,100.3100068,true
About Travel (Dorsett Grand Subang),,http://www.abouttravel.my,https://myfave.com/kuala-lumpur/partners/about-travel-dorsett-grand-subang,,Malaysia,Kuala Lumpur,,,false
About Travel (Estadia Hotel Melaka),,http://www.estadiahotel.com/,https://myfave.com/kuala-lumpur/partners/about-travel-estadia-hotel-melaka,,Malaysia,Kuala Lumpur,,,false
About Travel (Flamingo By The Beach Penang),,http://m-penang.flamingo.com.my/,https://myfave.com/kuala-lumpur/partners/about-travel-flamingo-by-the-beach-penang,,Malaysia,Kuala Lumpur,,,false
About Travel (Golden Sands Resort Penang By Shangri-La),,http://www.abouttravel.my,https://myfave.com/kuala-lumpur/partners/about-travel-golden-sands-resort-penang-by-shangri-la,,Malaysia,Kuala Lumpur,,,false
About Travel (Hard Rock Hotel Penang),,http://penang.hardrockhotels.net/,https://myfave.com/kuala-lumpur/partners/about-travel-hard-rock-hotel-penang,,Malaysia,Kuala Lumpur,,,false
About Travel (Hotel Excelsior Ipoh),,http://www.abouttravel.my,https://myfave.com/kuala-lumpur/partners/about-travel-hotel-excelsior-ipoh,,Malaysia,Kuala Lumpur,,,false
About Travel (Lone Pine Hotel Penang),,http://www.lonepinehotel.com/main.php,https://myfave.com/kuala-lumpur/partners/about-travel-lone-pine-hotel-penang,,Malaysia,Kuala Lumpur,,,false
About Travel (M Boutique Hotel),,https://ipoh.mboutiquehotels.com/,https://myfave.com/kuala-lumpur/partners/about-travel-m-boutique-hotel,,Malaysia,Kuala Lumpur,,,false
About Travel (M Roof Hotel & Residences Ipoh),,http://www.abouttravel.my,https://myfave.com/kuala-lumpur/partners/about-travel-m-roof-hotel-residences-ipoh,,Malaysia,Kuala Lumpur,,,false
About Travel (MU Hotel Ipoh),,http://muhotel.com/,https://myfave.com/kuala-lumpur/partners/about-travel-mu-hotel-ipoh,,Malaysia,Kuala Lumpur,,,false
About Travel (Nova Highlands Resort & Residences Cameron Highlands),,http://www.aranda-nova-cameron.com/,https://myfave.com/kuala-lumpur/partners/about-travel-nova-highlands-resort-residences-cameron-highlands,,Malaysia,Kuala Lumpur,,,false
About Travel (Pangkor Coral Bay Resort),,http://www.abouttravel.my,https://myfave.com/kuala-lumpur/partners/about-travel-pangkor-coral-bay-resort,,Malaysia,Kuala Lumpur,,,false
About Travel (Sunway Resort Hotel & Spa),,,https://myfave.com/kuala-lumpur/partners/about-travel-sunway-resort-hotel-spa,,Malaysia,Kuala Lumpur,,,false
About Travel (The Pines Melaka),,http://www.thepines-melaka.com/,https://myfave.com/kuala-lumpur/partners/about-travel-the-pines-melaka,,Malaysia,Kuala Lumpur,,,false
Above Cafe,"70, 1st floor, Jalan SS15/4D, Subang Jaya 47500",,https://myfave.com/kuala-lumpur/partners/above-cafe,,Malaysia,Kuala Lumpur,3.073682,101.589364,true
Above Gastrobar,"89 Jalan Sultan Yusof, 30000 Ipoh, Perak ",https://www.facebook.com/abovegastrobar/,https://myfave.com/kuala-lumpur/partners/above-gastrobar,,Malaysia,Kuala Lumpur,4.59647,101.0773515,true
A Brewing Story,,,https://myfave.com/kuala-lumpur/partners/a-brewing-story,,Malaysia,Kuala Lumpur,,,false
ABS AUTO SERVICES,"NO. 10G & 12G, JALAN 9/23A, MEDAN MAKMUR, OFF JALAN USAHAWAN, SETAPAK 53200 KUALA LUMPUR",,https://myfave.com/kuala-lumpur/partners/abs-auto-services,,Malaysia,Kuala Lumpur,3.1988312,101.71836140000005,true
Absolute Beauty,,https://www.facebook.com/Absolute-Beaute-112268615488412/,https://myfave.com/kuala-lumpur/partners/absolute-beauty,,Malaysia,Kuala Lumpur,,,false
Absolute Beauty & Wellness Spa,"3-G, Jalan Kajang Perdana 3/1, Taman Kajang Perdana, 43000 Kajang, Malaysia",https://www.facebook.com/absolutebeauty33/,https://myfave.com/kuala-lumpur/partners/absolute-beauty-wellness-spa,,Malaysia,Kuala Lumpur,2.990157,101.819529,true
Absolute Skin Solution,,https://www.facebook.com/skeyndorabsoluteskinsolutions,https://myfave.com/kuala-lumpur/partners/absolute-skin-solution,,Malaysia,Kuala Lumpur,,,false
ACafella Lakeside,"B-03-01, Plaza Kelana Jaya Lakeside, Jalan SS 7/13A, 47301 Petaling Jaya, Selangor.",https://www.facebook.com/aCafellaLakeside/,https://myfave.com/kuala-lumpur/partners/acafella-lakeside,,Malaysia,Kuala Lumpur,3.095336,101.598368,true
Ac Beaute Paradise,,https://www.facebook.com/paradise.acbeaute,https://myfave.com/kuala-lumpur/partners/ac-beaute-paradise,,Malaysia,Kuala Lumpur,,,false
Ac Beauty Lane,,,https://myfave.com/kuala-lumpur/partners/ac-beauty-lane,,Malaysia,Kuala Lumpur,,,false
Accent On Beauty,,,https://myfave.com/kuala-lumpur/partners/accent-on-beauty,,Malaysia,Kuala Lumpur,,,false
Access Gadget," LOT F1.37, Sunway Pyramid, Bandar Sunway, 47500 Subang Jaya, Selangor, Malaysia",,https://myfave.com/kuala-lumpur/partners/access-gadget,,Malaysia,Kuala Lumpur,3.0736103,101.6058964,true
A&C Dance & Performing Arts Centre,,,https://myfave.com/kuala-lumpur/partners/ac-dance-performing-arts-centre,,Malaysia,Kuala Lumpur,,,false
Ace Beauty Sense And Spa,,,https://myfave.com/kuala-lumpur/partners/ace-beauty-sense-and-spa,,Malaysia,Kuala Lumpur,,,false
Acson Cool Suppliers,,,https://myfave.com/kuala-lumpur/partners/acson-cool-suppliers,,Malaysia,Kuala Lumpur,,,false
Activ Studio,,http://www.activstudio.com.my/,https://myfave.com/kuala-lumpur/partners/activ-studio,,Malaysia,Kuala Lumpur,,,false
Acupaday,"Solaria Square 2-G-9 Medan Rajawali, Sungai Ara 11900 Bayan Lepas, Penang",https://www.facebook.com/CafeAcupaday/?ref=br_ rs&sw_fnr_id=3422159161&fnr_t=0,https://myfave.com/kuala-lumpur/partners/acupaday,,Malaysia,Kuala Lumpur,5.30229,100.264497,true
A Dance Academy,,,https://myfave.com/kuala-lumpur/partners/a-dance-academy,,Malaysia,Kuala Lumpur,,,false
Add Ikan Bakar,"G-M 1-08, Pantai Bazaria, Jalan Permai , Kuala Lumpur",,https://myfave.com/kuala-lumpur/partners/add-ikan-bakar,,Malaysia,Kuala Lumpur,3.107399,101.669984,true
Adeena Thai Cafe,"52, Jalan Datuk Sulaiman, TTDI 60000 kl",,https://myfave.com/kuala-lumpur/partners/adeena-thai-cafe,,Malaysia,Kuala Lumpur,3.142278,101.629433,true
Adela Skin Care,,https://www.facebook.com/pages/Adela-Skin-Care/1527956817425594?sk=timeline&ref=page_internal,https://myfave.com/kuala-lumpur/partners/adela-skin-care,,Malaysia,Kuala Lumpur,,,false
Adiicto,,https://www.adiicto.com,https://myfave.com/kuala-lumpur/partners/adiicto,,Malaysia,Kuala Lumpur,,,false
Adorabelle Skin & Body Line Centre,,,https://myfave.com/kuala-lumpur/partners/adorabelle-skin-body-line-centre,,Malaysia,Kuala Lumpur,,,false
A&D Organic Plant,"The Garden, Mid Valley City, 58000 Kuala Lumpur, Wilayah Persekutuan Kuala Lumpur, Malaysia",https://www.facebook.com/organicplant/,https://myfave.com/kuala-lumpur/partners/ad-organic-plant,,Malaysia,Kuala Lumpur,3.118682,101.67607700000008,true
A Dreamworld Beauty Service,,,https://myfave.com/kuala-lumpur/partners/a-dreamworld-beauty-service,,Malaysia,Kuala Lumpur,,,false
Adriana Beauty & Hair Salon,,,https://myfave.com/kuala-lumpur/partners/adriana-beauty-hair-salon,,Malaysia,Kuala Lumpur,,,false
Adriana Beauty & Hair Salon,,https://www.facebook.com/pg/kedairambutmuslimah/about/,https://myfave.com/kuala-lumpur/partners/adriana-beauty-hair-salon-b6c104a3-962b-4258-90fc-d8c27e3b45aa,,Malaysia,Kuala Lumpur,,,false
AD Travel,,http://www.adtravel.com.my/,https://myfave.com/kuala-lumpur/partners/ad-travel,,Malaysia,Kuala Lumpur,,,false
AD Travel (Grand Belllo Hotel Johor Bahru),,http://grandbelllohotel.com/,https://myfave.com/kuala-lumpur/partners/ad-travel-grand-belllo-hotel-johor-bahru,,Malaysia,Kuala Lumpur,,,false
AD Travel (M Boutique Hotel),,,https://myfave.com/kuala-lumpur/partners/ad-travel-m-boutique-hotel,,Malaysia,Kuala Lumpur,,,false
Advance Beauty Slimming Land,,,https://myfave.com/kuala-lumpur/partners/advance-beauty-slimming-land-96ca34d2-e882-491a-9b26-c9a9efe3ceec,,Malaysia,Kuala Lumpur,,,false
Advanced Omni Beauty Saloon,,,https://myfave.com/kuala-lumpur/partners/advanced-omni-beauty-saloon,,Malaysia,Kuala Lumpur,,,false
Adventoro.com,,https://www.adventoro.com/,https://myfave.com/kuala-lumpur/partners/adventorocom,,Malaysia,Kuala Lumpur,,,false
Adventure Cove,,http://www.icosmosenterprise.com,https://myfave.com/kuala-lumpur/partners/adventure-cove,,Malaysia,Kuala Lumpur,,,false
Aembellish Beaute House,,https://www.facebook.com/Aembellish-Beaute-House-241995876157848/,https://myfave.com/kuala-lumpur/partners/aembellish-beaute-house,,Malaysia,Kuala Lumpur,,,false
Aeon Fantasy,,,https://myfave.com/kuala-lumpur/partners/aeon-fantasy,,Malaysia,Kuala Lumpur,,,false
AEON Wellness X M Pavillion Nail Spa,,,https://myfave.com/kuala-lumpur/partners/aeon-wellness-x-m-pavillion-nail-spa,,Malaysia,Kuala Lumpur,,,false
Aery Jo Academy,,http://www.aeryjoacademy.com/,https://myfave.com/kuala-lumpur/partners/aery-jo-academy,,Malaysia,Kuala Lumpur,,,false
Aesthetic Brazilian Jiu-Jitsu,,http://fightaesthetic.com/,https://myfave.com/kuala-lumpur/partners/aesthetic-brazilian-jiu-jitsu,,Malaysia,Kuala Lumpur,,,false
Aesthetic Fitness Centre,,https://www.facebook.com/AestheticFitnessCentre/timeline,https://myfave.com/kuala-lumpur/partners/aesthetic-fitness-centre,,Malaysia,Kuala Lumpur,,,false
Aesthetic MD,,https://www.aestheticmd.com.my/,https://myfave.com/kuala-lumpur/partners/aesthetic-md,,Malaysia,Kuala Lumpur,,,false
Aesthetic Skin,,http://www.aestheticskin.asia/,https://myfave.com/kuala-lumpur/partners/aesthetic-skin,,Malaysia,Kuala Lumpur,,,false
Aesthetic Skin PRIME,,http://www.aestheticskin.asia/,https://myfave.com/kuala-lumpur/partners/aesthetic-skin-prime,,Malaysia,Kuala Lumpur,,,false
Aesthetics Skin & Body Care,,,https://myfave.com/kuala-lumpur/partners/aesthetics-skin-body-care,,Malaysia,Kuala Lumpur,,,false
A'Famosa Resort Hotel,,http://www.afamosa.com,https://myfave.com/kuala-lumpur/partners/afamosa-resort-hotel-bae520d5-00a9-4dd9-808b-a9b32b470531,,Malaysia,Kuala Lumpur,,,false
A'Famosa Resort Hotel (About Travel),,http://www.abouttravel.my,https://myfave.com/kuala-lumpur/partners/afamosa-resort-hotel-about-travel,,Malaysia,Kuala Lumpur,,,false
A'Famosa Resort Hotel (Activities),,http://www.afamosa.com,https://myfave.com/kuala-lumpur/partners/afamosa-resort-hotel-activities-aef2e5ec-11a9-404a-b65f-7f039aac8480,,Malaysia,Kuala Lumpur,,,false
AFC Athlete Fitness Centre,,https://www.facebook.com/AFCgelangpatah/,https://myfave.com/kuala-lumpur/partners/afc-athlete-fitness-centre,,Malaysia,Kuala Lumpur,,,false
Afterburn Studio (FAVE),,https://www.facebook.com/pg/afterburnstudiobangsar/about/?ref=page_internal,https://myfave.com/kuala-lumpur/partners/afterburn-studio-fave,,Malaysia,Kuala Lumpur,,,false
Agata Resort Nusa Dua,,,https://myfave.com/kuala-lumpur/partners/agata-resort-nusa-dua,,Malaysia,Kuala Lumpur,,,false
Ageless Beauty,,,https://myfave.com/kuala-lumpur/partners/ageless-beauty,,Malaysia,Kuala Lumpur,,,false
A Great Day Cafe,"No 10, Jalan Danau Niaga 1, Taman Danau Kota, Setapak, 53300, Kuala Lumpur",,https://myfave.com/kuala-lumpur/partners/a-great-day-cafe,,Malaysia,Kuala Lumpur,3.20336,101.716921,true
Aguna Resort Tioman,,http://www.agunaresort.com,https://myfave.com/kuala-lumpur/partners/aguna-resort-tioman,,Malaysia,Kuala Lumpur,,,false
AG Western Food,"GM 1-07, Pantai Bazaria, Jalan Pantai Permai, 59200 Kuala Lumpur",,https://myfave.com/kuala-lumpur/partners/ag-western-food,,Malaysia,Kuala Lumpur,3.107553,101.67015,true
Ah Gong Laksa 阿公辣沙,"1, Jalan Harmonium 35/1, Taman Mount Austin, 81100 Johor Bahru, Johor, Malaysia",https://www.facebook.com/ahgonglaksa3505/,https://myfave.com/kuala-lumpur/partners/ah-gong-laksa-%E9%98%BF%E5%85%AC%E8%BE%A3%E6%B2%99,,Malaysia,Kuala Lumpur,1.5583001,103.7881188,true
Ah Hee SK Auto,,,https://myfave.com/kuala-lumpur/partners/ah-hee-sk-auto,,Malaysia,Kuala Lumpur,,,false
Ahmad Albab Restaurant,,http://www.ahmadalbabrest.com,https://myfave.com/kuala-lumpur/partners/ahmad-albab-restaurant,,Malaysia,Kuala Lumpur,,,false
Ah Mah Traditional Homemade Egg Sponge Cake,"LG-51 & 52A, LG Floor, DA MEN Mall, No. 1, Persiaran Kewajipan, USJ 1, 47600, Subang Jaya, Selangor Darul Ehsan.",,https://myfave.com/kuala-lumpur/partners/ah-mah-traditional-homemade-egg-sponge-cake,,Malaysia,Kuala Lumpur,3.058134,101.592397,true
Ah Yat Abalone Forum Restaurant,,https://www.facebook.com/pages/Ah-Yat-Abalone-Forum-Restaurant/108324719249369,https://myfave.com/kuala-lumpur/partners/ah-yat-abalone-forum-restaurant,,Malaysia,Kuala Lumpur,,,false
Ah Yi Hakka Pan Mee,"26, Lorong 24, Taman Petani Jaya, 08000 Sungai Petani, Kedah, Malaysia",,https://myfave.com/kuala-lumpur/partners/ah-yi-hakka-pan-mee,,Malaysia,Kuala Lumpur,5.6341976,100.48954230000004,true
Ai Mei Li Beauty Care,,https://www.facebook.com/amlbeauty1977/,https://myfave.com/kuala-lumpur/partners/ai-mei-li-beauty-care,,Malaysia,Kuala Lumpur,,,false
Aimi Beauty Salon,,https://www.facebook.com/Aimi-beauty-salon-916769625131222/,https://myfave.com/kuala-lumpur/partners/aimi-beauty-salon,,Malaysia,Kuala Lumpur,,,false
Aira Hotel,,http://airahotel.com.my/,https://myfave.com/kuala-lumpur/partners/aira-hotel,,Malaysia,Kuala Lumpur,,,false
Airfit Dance Studio,,http://airfitstudio.com/,https://myfave.com/kuala-lumpur/partners/airfit-dance-studio,,Malaysia,Kuala Lumpur,,,false
AirTea偵茶機,"26, Jalan Pendekar 11, Taman Ungku Tun Aminah, 81300 Skudai, Johor, Malaysia",https://www.facebook.com/AirTeacafe/,https://myfave.com/kuala-lumpur/partners/airtea%E5%81%B5%E8%8C%B6%E6%A9%9F,,Malaysia,Kuala Lumpur,1.5151605,103.65451340000004,true
AirVenture Paragliders,,http://www.paragliders.my/,https://myfave.com/kuala-lumpur/partners/airventure-paragliders,,Malaysia,Kuala Lumpur,,,false
Aiyam Zaman Cafe & Restaurant,"S-2-1 Pearl Avenue, Jalan Wan Siew, Taman Sepakat Indah, 43000 Kajang, Selangor, Malaysia",,https://myfave.com/kuala-lumpur/partners/aiyam-zaman-cafe-restaurant,,Malaysia,Kuala Lumpur,2.983566,101.78292899999997,true
AJ Hackett Sentosa (Triba-East Travel),,https://www.ajhackett.com/sentosa/,https://myfave.com/kuala-lumpur/partners/aj-hackett-sentosa-triba-east-travel,,Malaysia,Kuala Lumpur,,,false
Ajisen Ramen,"L3-042, Level 3, Vivacity Megamall, 93350, Kuching, Sarawak",https://www.facebook.com/AjisenRamenKuching/,https://myfave.com/kuala-lumpur/partners/ajisen-ramen,,Malaysia,Kuala Lumpur,1.527287,110.368314,true
Akasha Cafe & Pub,"288D-2-13, Jalan Thean Teik, Bandar Baru Air Itam, 11500 Ayer Itam, Pulau Pinang, Malaysia",https://www.facebook.com/akashacafepub/,https://myfave.com/kuala-lumpur/partners/akasha-cafe-pub,,Malaysia,Kuala Lumpur,5.397775,100.28831100000002,true
Aki Hair Saloon,,https://www.facebook.com/akihairsaloon/,https://myfave.com/kuala-lumpur/partners/aki-hair-saloon,,Malaysia,Kuala Lumpur,,,false
Akma Spa,,https://www.akmaspa.com.my/,https://myfave.com/kuala-lumpur/partners/akma-spa,,Malaysia,Kuala Lumpur,,,false
AKO Fitness,,http://akofitness.blogspot.my/,https://myfave.com/kuala-lumpur/partners/ako-fitness,,Malaysia,Kuala Lumpur,,,false
Akshara Palace,"No3 Jln 26A/70A Prisma Ville Business Centre Desa sri Hartama, kl",,https://myfave.com/kuala-lumpur/partners/akshara-palace,,Malaysia,Kuala Lumpur,3.160798,101.649994,true
Aladdin Shisha Lounge And Restaurant,,https://www.facebook.com/aladdin.publika/,https://myfave.com/kuala-lumpur/partners/aladdin-shisha-lounge-and-restaurant,,Malaysia,Kuala Lumpur,,,false
Alamak Dance Studio,,https://www.facebook.com/AlamakDanceStudio/,https://myfave.com/kuala-lumpur/partners/alamak-dance-studio,,Malaysia,Kuala Lumpur,,,false
Alam Beauty & Wellness Spa,,https://www.facebook.com/alamspakl/,https://myfave.com/kuala-lumpur/partners/alam-beauty-wellness-spa,,Malaysia,Kuala Lumpur,,,false
Alanna's Kitchen,No 8 Jalan Pandah Indah 1/23D Pandan Indah 55100,http://alannaskitchen.my/,https://myfave.com/kuala-lumpur/partners/alannas-kitchen,,Malaysia,Kuala Lumpur,3.131156,101.752349,true
Alaqsa Carpets,,https://www.facebook.com/OfficeCarpetMalaysia/,https://myfave.com/kuala-lumpur/partners/alaqsa-carpets,,Malaysia,Kuala Lumpur,,,false
Alchemist Dessert Cafe,,,https://myfave.com/kuala-lumpur/partners/alchemist-dessert-cafe,,Malaysia,Kuala Lumpur,,,false
Al Dente Restaurant,,https://www.facebook.com/AL-Dente-Restaurant-Italianfusion-Melaka-631713683566916/,https://myfave.com/kuala-lumpur/partners/al-dente-restaurant,,Malaysia,Kuala Lumpur,,,false
Alessandro Caffe,"A-01-03 Level 1, Block A, Jalan Lagoon Selatan, Bandar Sunway, 47500 Subang Jaya, Selangor, Malaysia",,https://myfave.com/kuala-lumpur/partners/alessandro-caffe,,Malaysia,Kuala Lumpur,3.065289,101.609176,true
Alexandria,"Gm Klang, Bandar Botanik, 41200 Klang, Selangor, Malaysia",https://www.facebook.com/malaysiaalexandria/,https://myfave.com/kuala-lumpur/partners/alexandria,,Malaysia,Kuala Lumpur,2.9903021,101.44828860000007,true
Alexys Cafe,"1st floor, lot 16 (DBKK NO 16), Bangunan Seri  Damai, Lorong NIbung, Jalan Kolom, 88300 Kota Kinabalu ",https://www.facebook.com/alexyscafekk/,https://myfave.com/kuala-lumpur/partners/alexys-cafe,,Malaysia,Kuala Lumpur,5.961909899999998,116.08577880000007,true
Alfresco Wine | Dine,"L1-03, Shopping Podium Hock Lee Centre, Jalan Datuk Abang Abdul Rahim, 93100, Kuching, Sarawak",https://www.facebook.com/Alfresco-Wine-Dine-221887077887021/,https://myfave.com/kuala-lumpur/partners/alfresco-wine-dine,,Malaysia,Kuala Lumpur,1.55302,110.367462,true
Al Hannan Events,,,https://myfave.com/kuala-lumpur/partners/al-hannan-events,,Malaysia,Kuala Lumpur,,,false
Alicia K. Lash & Nail Spa,,,https://myfave.com/kuala-lumpur/partners/alicia-k-lash-nail-spa,,Malaysia,Kuala Lumpur,,,false
Align Yoga Studio,,https://www.alignyoga.com.my/,https://myfave.com/kuala-lumpur/partners/align-yoga-studio,,Malaysia,Kuala Lumpur,,,false
Ali Muthu & Ah Hock,"UG-1 Upper Ground Floor, The Sphere, No 1, Avenue 1, Bangsar South.",,https://myfave.com/kuala-lumpur/partners/ali-muthu-ah-hock,,Malaysia,Kuala Lumpur,3.112414,101.668203,true
Alive Museum,,https://www.facebook.com/AliveMuseumGenting/,https://myfave.com/kuala-lumpur/partners/alive-museum,,Malaysia,Kuala Lumpur,,,false
Alley No.5,"7, Jalan Kampung Kuli, 75200 Melaka, Malaysia",https://www.facebook.com/Alley-No5-%E4%BA%94%E5%8F%B7-1411295249150289/,https://myfave.com/kuala-lumpur/partners/alley-no5,,Malaysia,Kuala Lumpur,2.1962357,102.2488634,true
Allied Combat Sports,,https://www.facebook.com/Allied-GYM-Combat-Sports-325113844205842/info/?tab=overview,https://myfave.com/kuala-lumpur/partners/allied-combat-sports,,Malaysia,Kuala Lumpur,,,false
All Star Fitness,,https://www.facebook.com/All-Star-Fitness-306801609519435/timeline/,https://myfave.com/kuala-lumpur/partners/all-star-fitness,,Malaysia,Kuala Lumpur,,,false
Allura Medspa,,https://www.facebook.com/Allura-Medspa-228080651037764/,https://myfave.com/kuala-lumpur/partners/allura-medspa,,Malaysia,Kuala Lumpur,,,false
Almendi's,,http://www.almendis.com,https://myfave.com/kuala-lumpur/partners/almendis,,Malaysia,Kuala Lumpur,,,false
Aloft Kuala Lumpur Sentral,,http://www.aloftkualalumpursentral.com/,https://myfave.com/kuala-lumpur/partners/aloft-kuala-lumpur-sentral,,Malaysia,Kuala Lumpur,,,false
Aloi Happy Thai Restaurant And Cafe,"8, Jalan Phuah Hin Leong, 10050 George Town, Penang, Malaysia",,https://myfave.com/kuala-lumpur/partners/aloi-happy-thai-restaurant-and-cafe,,Malaysia,Kuala Lumpur,5.423648099999999,100.32274289999998,true
Alpha Gym,,https://www.facebook.com/pages/ALPHA-GYM-BUKIT-Serdang/598977036902807,https://myfave.com/kuala-lumpur/partners/alpha-gym,,Malaysia,Kuala Lumpur,,,false
Alpha Ida,"Lot 1022, Section 66, Jalan Pending, 93450, Kuching, Sarawak",,https://myfave.com/kuala-lumpur/partners/alpha-ida,,Malaysia,Kuala Lumpur,1.566132,110.391523,true
Alrif Restaurant,"G 13/14 Heritage Resident South Lake Jalan SB Dagang, 43300 Seri Kembangan, Selangor, Malaysia",,https://myfave.com/kuala-lumpur/partners/alrif-restaurant,,Malaysia,Kuala Lumpur,3.025432,101.717887,true
Althea,,http://my.althea.kr/,https://myfave.com/kuala-lumpur/partners/althea,,Malaysia,Kuala Lumpur,,,false
Amanda Jinq Spa & Beauty,,,https://myfave.com/kuala-lumpur/partners/amanda-jinq-spa-beauty,,Malaysia,Kuala Lumpur,,,false
Amani’s Red Carpet Beauty & Spa Salon,,,https://myfave.com/kuala-lumpur/partners/amanis-red-carpet-beauty-spa-salon-94aa1a41-8600-4416-a120-86270f649428,,Malaysia,Kuala Lumpur,,,false
Amante Nail Spa & Body Care,,http://amantenailspa.blogspot.my/,https://myfave.com/kuala-lumpur/partners/amante-nail-spa-body-care,,Malaysia,Kuala Lumpur,,,false
Amara Sanctuary Of Beauty & Wellness,,https://www.facebook.com/Amara-Sanctuary-of-Beauty-Wellness-448977841948373/?fref=ts,https://myfave.com/kuala-lumpur/partners/amara-sanctuary-of-beauty-wellness,,Malaysia,Kuala Lumpur,,,false
Amare Dance Academy,,http://amaredance.wix.com/amaredance,https://myfave.com/kuala-lumpur/partners/amare-dance-academy,,Malaysia,Kuala Lumpur,,,false
A Mayura's Beauty & Spa,,,https://myfave.com/kuala-lumpur/partners/a-mayuras-beauty-spa,,Malaysia,Kuala Lumpur,,,false
Amaze K Cafe,,https://www.facebook.com/amaze.k.cafe/,https://myfave.com/kuala-lumpur/partners/amaze-k-cafe,,Malaysia,Kuala Lumpur,,,false
Amazing Grace Beauty,,,https://myfave.com/kuala-lumpur/partners/amazing-grace-beauty,,Malaysia,Kuala Lumpur,,,false
Amazing Retreat Beauty,,,https://myfave.com/kuala-lumpur/partners/amazing-retreat-beauty,,Malaysia,Kuala Lumpur,,,false
Amazing Scape,,,https://myfave.com/kuala-lumpur/partners/amazing-scape,,Malaysia,Kuala Lumpur,,,false
Amazing World Studio,,http://www.amazingworld.com.my/,https://myfave.com/kuala-lumpur/partners/amazing-world-studio,,Malaysia,Kuala Lumpur,,,false
Ambassador Putrajaya,,https://www.facebook.com/ambassadorputrajaya/,https://myfave.com/kuala-lumpur/partners/ambassador-putrajaya,,Malaysia,Kuala Lumpur,,,false
Ambassador Row Hotel Suites By Lanson Place,,,https://myfave.com/kuala-lumpur/partners/ambassador-row-hotel-suites-by-lanson-place,,Malaysia,Kuala Lumpur,,,false
Amber Beila Colors Of Beauty,,http://www.amberbeila.com/,https://myfave.com/kuala-lumpur/partners/amber-beila-colors-of-beauty,,Malaysia,Kuala Lumpur,,,false
Amber Chinese Muslim Restaurant,,https://www.facebook.com/Amber-Chinese-Muslim-Restaurant-1604683129813249/,https://myfave.com/kuala-lumpur/partners/amber-chinese-muslim-restaurant,,Malaysia,Kuala Lumpur,,,false
Amber Gym Setia Indah,,https://www.facebook.com/ambersgym/,https://myfave.com/kuala-lumpur/partners/amber-gym-setia-indah,,Malaysia,Kuala Lumpur,,,false
Ambon Boenda,,https://www.facebook.com/ambonboendabakery/,https://myfave.com/kuala-lumpur/partners/ambon-boenda,,Malaysia,Kuala Lumpur,,,false
Ambrosia Sense,,,https://myfave.com/kuala-lumpur/partners/ambrosia-sense,,Malaysia,Kuala Lumpur,,,false
Amelio Restaurant,"FF.07, First Floor, The Waterfront, Persiaran Residen, Desa ParkCity, Kuala Lumpur 52200",https://www.facebook.com/AmelioCafe/,https://myfave.com/kuala-lumpur/partners/amelio-restaurant,,Malaysia,Kuala Lumpur,3.186639,101.627888,true
Amenic Film Space,,https://www.facebook.com/AMENICSC/,https://myfave.com/kuala-lumpur/partners/amenic-film-space,,Malaysia,Kuala Lumpur,,,false
Amiko Skin & Nail Care,,,https://myfave.com/kuala-lumpur/partners/amiko-skin-nail-care,,Malaysia,Kuala Lumpur,,,false
Amirdah Maju Enterprise,"No 9 kiosk PPR Sungai Bonus, Jalan Air Jernih 53300 Setapak, Kuala Lumpur",,https://myfave.com/kuala-lumpur/partners/amirdah-maju-enterprise,,Malaysia,Kuala Lumpur,3.188238,101.721872,true
Ammie Beauty,,,https://myfave.com/kuala-lumpur/partners/ammie-beauty,,Malaysia,Kuala Lumpur,,,false
Amore Bakery House,"86 , Jalan Sutera Tanjung 8/3, Taman Sutera Utama, 81300 Skudai, Johor, Malaysia",,https://myfave.com/kuala-lumpur/partners/amore-bakery-house,,Malaysia,Kuala Lumpur,1.5150649,103.66898100000003,true
Amore Beauty,,https://www.facebook.com/amorebeautykk/,https://myfave.com/kuala-lumpur/partners/amore-beauty,,Malaysia,Kuala Lumpur,,,false
Amped Trampoline Park,,http://www.ampedmalaysia.com/,https://myfave.com/kuala-lumpur/partners/amped-trampoline-park,,Malaysia,Kuala Lumpur,,,false
Amy Chia Beauty Spa,,http://guinot.com.my/,https://myfave.com/kuala-lumpur/partners/amy-chia-beauty-spa,,Malaysia,Kuala Lumpur,,,false
Amyssrite Hairdressing,,http://www.amyssrite-hairdressing.com,https://myfave.com/kuala-lumpur/partners/amyssrite-hairdressing,,Malaysia,Kuala Lumpur,,,false
Amyzie,,,https://myfave.com/kuala-lumpur/partners/amyzie,,Malaysia,Kuala Lumpur,,,false
Anabolic Gym,,,https://myfave.com/kuala-lumpur/partners/anabolic-gym,,Malaysia,Kuala Lumpur,,,false
ANAGEN Hair Studio,,http://www.anagen.com.my,https://myfave.com/kuala-lumpur/partners/anagen-hair-studio,,Malaysia,Kuala Lumpur,,,false
Ana Ikan Bakar (Shah Alam),,,https://myfave.com/kuala-lumpur/partners/ana-ikan-bakar-shah-alam,,Malaysia,Kuala Lumpur,,,false
A Nailicious Studio,,,https://myfave.com/kuala-lumpur/partners/a-nailicious-studio,,Malaysia,Kuala Lumpur,,,false
Ancient Herbs,,https://www.facebook.com/Ancient-Herbs-1461856317365349/,https://myfave.com/kuala-lumpur/partners/ancient-herbs,,Malaysia,Kuala Lumpur,,,false
"Ancient Thai Herbal Spa & Beauty ( Sec 17, PJ)",,http://www.ancientthaispa.com,https://myfave.com/kuala-lumpur/partners/ancient-thai-herbal-spa-beauty-sec-17-pj,,Malaysia,Kuala Lumpur,,,false
Andini Beauty,,,https://myfave.com/kuala-lumpur/partners/andini-beauty,,Malaysia,Kuala Lumpur,,,false
ANE.J,,https://www.facebook.com/ANE.JHairStudio/,https://myfave.com/kuala-lumpur/partners/anej,,Malaysia,Kuala Lumpur,,,false
Aneka Home Essentials,"Jalan Sentul Pasar, 51000 Kuala Lumpur, Wilayah Persekutuan Kuala Lumpur, Malaysia",https://www.facebook.com/anekahome/,https://myfave.com/kuala-lumpur/partners/aneka-home-essentials,,Malaysia,Kuala Lumpur,3.207660199999999,101.68992639999999,true
Ang Ang's Roastery," 48, Lorong Seri Alma, Taman Selesa, Bukit Mertajam Penang, Malaysia",,https://myfave.com/kuala-lumpur/partners/ang-angs-roastery,,Malaysia,Kuala Lumpur,5.3317871,100.48556400000007,true
ANgel Beauty Embroidery Studio(Pretty 365),,https://www.facebook.com/Angeltay0722/?fref=ts,https://myfave.com/kuala-lumpur/partners/angel-beauty-embroidery-studiopretty-365,,Malaysia,Kuala Lumpur,,,false
Angel Club Beauty Consultancy,,,https://myfave.com/kuala-lumpur/partners/angel-club-beauty-consultancy,,Malaysia,Kuala Lumpur,,,false
Angel Esthetic Enterprise,,,https://myfave.com/kuala-lumpur/partners/angel-esthetic-enterprise,,Malaysia,Kuala Lumpur,,,false
Angel Life Beauty & Slimming House,,,https://myfave.com/kuala-lumpur/partners/angel-life-beauty-slimming-house,,Malaysia,Kuala Lumpur,,,false
Angel Sense Beauty & Wellness,,,https://myfave.com/kuala-lumpur/partners/angel-sense-beauty-wellness,,Malaysia,Kuala Lumpur,,,false
Angel White Wellness,,https://www.facebook.com/Angel-White-Wellness-142818902457147/,https://myfave.com/kuala-lumpur/partners/angel-white-wellness,,Malaysia,Kuala Lumpur,,,false
Angelz Beauty,,,https://myfave.com/kuala-lumpur/partners/angelz-beauty,,Malaysia,Kuala Lumpur,,,false
Angkasa Western,"No. 82, Medan Selera Dataran Sri Angkasa, Pantai Baru, Kuala Lumpur",,https://myfave.com/kuala-lumpur/partners/angkasa-western,,Malaysia,Kuala Lumpur,3.109405,101.66848,true
Angry Birds Activity Park,,http://www.trulytravelmart.com.my,https://myfave.com/kuala-lumpur/partners/angry-birds-activity-park,,Malaysia,Kuala Lumpur,,,false
Anigood,,,https://myfave.com/kuala-lumpur/partners/anigood,,Malaysia,Kuala Lumpur,,,false
Anjina Curry House,"41, Jalan Bentara 1, Taman Ungku Tun Aminah, 81300 Skudai, Johor, Malaysia",,https://myfave.com/kuala-lumpur/partners/anjina-curry-house,,Malaysia,Kuala Lumpur,1.5192611,103.6609573,true
Anju Spa,,http://anjuspa.com/,https://myfave.com/kuala-lumpur/partners/anju-spa,,Malaysia,Kuala Lumpur,,,false
Anna Fitness,,https://www.facebook.com/pages/Anna-Fitness-23/239665189520189,https://myfave.com/kuala-lumpur/partners/anna-fitness,,Malaysia,Kuala Lumpur,,,false
Anna Nails & Beauty,,,https://myfave.com/kuala-lumpur/partners/anna-nails-beauty,,Malaysia,Kuala Lumpur,,,false
Ann Health Spa,,https://www.facebook.com/ANNHEALTHSPASUNGAIDUA/?ref=page_internal,https://myfave.com/kuala-lumpur/partners/ann-health-spa,,Malaysia,Kuala Lumpur,,,false
Ante,"1 Utama Shopping Centre (New Wing), Bandar Utama, 47800 Petaling Jaya, Selangor, Malaysia",,https://myfave.com/kuala-lumpur/partners/ante,,Malaysia,Kuala Lumpur,3.1498863,101.61570069999993,true
Anti Ageing Hatha Yoga House,,,https://myfave.com/kuala-lumpur/partners/anti-ageing-hatha-yoga-house,,Malaysia,Kuala Lumpur,,,false
Anti Oxidant Centre Rejuvenate,,http://www.anti-oxidantcentre.com/,https://myfave.com/kuala-lumpur/partners/anti-oxidant-centre-rejuvenate,,Malaysia,Kuala Lumpur,,,false
Antonio's TTDI," 32, Jalan Wan Kadir 4, Damansara Kim, 60000 Taman Tun Dr Ismail, Wilayah Persekutuan Kuala Lumpur",,https://myfave.com/kuala-lumpur/partners/antonios-ttdi,,Malaysia,Kuala Lumpur,3.136429,101.630874,true
Anytime Fitness Fiesta,,http://anytimefitness.my/,https://myfave.com/kuala-lumpur/partners/anytime-fitness-fiesta,,Malaysia,Kuala Lumpur,,,false
Anytime Fitness Kota Kemuning,,https://www.facebook.com/anytimefitnesskotakemuning,https://myfave.com/kuala-lumpur/partners/anytime-fitness-kota-kemuning,,Malaysia,Kuala Lumpur,,,false
Anytime Fitness Nexis,,http://anytimefitness.my/,https://myfave.com/kuala-lumpur/partners/anytime-fitness-nexis,,Malaysia,Kuala Lumpur,,,false
Anytime Fitness Oasis,,http://anytimefitness.my/,https://myfave.com/kuala-lumpur/partners/anytime-fitness-oasis,,Malaysia,Kuala Lumpur,,,false
Anytime Fitness Qliq,,http://anytimefitness.my/,https://myfave.com/kuala-lumpur/partners/anytime-fitness-qliq,,Malaysia,Kuala Lumpur,,,false
Anytime Fitness Setiawangsa,,,https://myfave.com/kuala-lumpur/partners/anytime-fitness-setiawangsa,,Malaysia,Kuala Lumpur,,,false
Anytime Fitness Solaris,,http://anytimefitness.my/,https://myfave.com/kuala-lumpur/partners/anytime-fitness-solaris,,Malaysia,Kuala Lumpur,,,false
Anytime Fitness Wisma BU8,,http://anytimefitness.my/,https://myfave.com/kuala-lumpur/partners/anytime-fitness-wisma-bu8,,Malaysia,Kuala Lumpur,,,false
Apex Fitness,,https://www.facebook.com/apexfitnessmalaysia/timeline,https://myfave.com/kuala-lumpur/partners/apex-fitness,,Malaysia,Kuala Lumpur,,,false
Apex's Deli,"2, Lorong Teras Jaya 8, Kawasan Perniagaan Teras Jaya, 13400 Butterworth, Pulau Pinang, Malaysia",,https://myfave.com/kuala-lumpur/partners/apexs-deli,,Malaysia,Kuala Lumpur,5.4331855,100.39031550000004,true
Api Api Steamboat & Grill,,https://www.facebook.com/apiapisteamboatgrill/,https://myfave.com/kuala-lumpur/partners/api-api-steamboat-grill,,Malaysia,Kuala Lumpur,,,false
A Pie Thing,"128G, Jalan SS21/35, Damansara Utama, 47400 Petaling Jaya, Malaysia",https://www.facebook.com/apiething/,https://myfave.com/kuala-lumpur/partners/a-pie-thing,,Malaysia,Kuala Lumpur,3.133546,101.624469,true
A' Pieu,"Lot F31, At AEON Terbau City
1, Jalan Desa Terbau,
Taman Desa Terbau,
81100 Johor Bahru,
Johor, Malaysia.",https://apieumalaysia.com/,https://myfave.com/kuala-lumpur/partners/a-pieu,,Malaysia,Kuala Lumpur,1.5503949,103.7920487,true
Apollo Art Class @ Phileo Damansara 1,,,https://myfave.com/kuala-lumpur/partners/apollo-art-class-phileo-damansara-1,,Malaysia,Kuala Lumpur,,,false
A POUCH SCISSORS,,https://www.facebook.com/POUCHSCISSORS/,https://myfave.com/kuala-lumpur/partners/a-pouch-scissors,,Malaysia,Kuala Lumpur,,,false
Appethaizing Thai Restaurant,"63, Jalan Kuning 2, Taman Pelangi, 80400 Johor Bahru, Johor, Malaysia",https://www.facebook.com/thappethaizing/,https://myfave.com/kuala-lumpur/partners/appethaizing-thai-restaurant,,Malaysia,Kuala Lumpur,1.4785052,103.76654350000001,true
Apple Tech Engineering PLT,,,https://myfave.com/kuala-lumpur/partners/apple-tech-engineering-plt,,Malaysia,Kuala Lumpur,,,false
Apps Hotel,,http://www.appshotel.com.my/,https://myfave.com/kuala-lumpur/partners/apps-hotel,,Malaysia,Kuala Lumpur,,,false
APPS Hotel (Travel),,http://www.appshotel.com.my/,https://myfave.com/kuala-lumpur/partners/apps-hotel-travel,,Malaysia,Kuala Lumpur,,,false
Apronbay,,http://www.apronbay.com/,https://myfave.com/kuala-lumpur/partners/apronbay-25965922-a86d-42ff-89a0-145c09ec8e0b,,Malaysia,Kuala Lumpur,,,false
Aquaria KLCC (Zeenath Tour),,,https://myfave.com/kuala-lumpur/partners/aquaria-klcc-zeenath-tour,,Malaysia,Kuala Lumpur,,,false
Aqua Spa@Vangohh Eminent 时尚休闲水汇,,,https://myfave.com/kuala-lumpur/partners/aqua-spavangohh-eminent-%E6%97%B6%E5%B0%9A%E4%BC%91%E9%97%B2%E6%B0%B4%E6%B1%87,,Malaysia,Kuala Lumpur,,,false
Arabella Restaurant,,,https://myfave.com/kuala-lumpur/partners/arabella-restaurant,,Malaysia,Kuala Lumpur,,,false
B3 Lab,,,https://myfave.com/kuala-lumpur/partners/b3-lab,,Malaysia,Kuala Lumpur,,,false
B4ItHappens,,http://b4ithappensblog.blogspot.com/2011/11/b4ithappens-centre-at-amcorp-mall.html,https://myfave.com/kuala-lumpur/partners/b4ithappens,,Malaysia,Kuala Lumpur,,,false
Baan Kanom Jeen,"F07, Empire Damansara, G11, Jalan PJU 8/8, Damansara Perdana, 47820 Petaling Jaya, Selangor, Malaysia",,https://myfave.com/kuala-lumpur/partners/baan-kanom-jeen,,Malaysia,Kuala Lumpur,3.1666083,101.61188900000002,true
Baan Kanom Jeen (IOI Putrajaya),"IOI City Mall, Ioi Resort, 62502 Putrajaya",,https://myfave.com/kuala-lumpur/partners/baan-kanom-jeen-ioi-putrajaya,,Malaysia,Kuala Lumpur,2.970356,101.713305,true
Baan Thai Café,"2-1, Ground Floor, Persiaran Greentown 6, Greentown Business Centre Ipoh, Perak 30450",https://www.facebook.com/baanthaiipoh/,https://myfave.com/kuala-lumpur/partners/baan-thai-cafe,,Malaysia,Kuala Lumpur,4.5989768816689,101.09487712383,true
Babah & Co,,,https://myfave.com/kuala-lumpur/partners/babah-co,,Malaysia,Kuala Lumpur,,,false
Baba Nyonya By Sambal Chilli,,http://www.babanyonya.co/,https://myfave.com/kuala-lumpur/partners/baba-nyonya-by-sambal-chilli,,Malaysia,Kuala Lumpur,,,false
Babor Beauty Salon,,,https://myfave.com/kuala-lumpur/partners/babor-beauty-salon,,Malaysia,Kuala Lumpur,,,false
Babor Premium Beauty Spa,,,https://myfave.com/kuala-lumpur/partners/babor-premium-beauty-spa,,Malaysia,Kuala Lumpur,,,false
Babu Ice,"69, Jalan Perjiranan 15/1, Bandar Dato Onn, 81100 Johor Bahru, Johor, Malaysia",https://www.facebook.com/babuice69/,https://myfave.com/kuala-lumpur/partners/babu-ice,,Malaysia,Kuala Lumpur,1.5697541,103.7433466,true
BabyFace Hair Studio,,https://www.facebook.com/babyfacehairstudio/,https://myfave.com/kuala-lumpur/partners/babyface-hair-studio,,Malaysia,Kuala Lumpur,,,false
Baby Mart,"No100-1, Jalan PUJ 3/2, Taman Puncak Jalil, 43300 Seri Kembangan, Selangor, Malaysia",,https://myfave.com/kuala-lumpur/partners/baby-mart,,Malaysia,Kuala Lumpur,3.017074,101.67552679999994,true
Baby Sensory,,http://www.babysensory.com,https://myfave.com/kuala-lumpur/partners/baby-sensory,,Malaysia,Kuala Lumpur,,,false
Baby Sumo,"16, butterworth business city centre off jalan raja uda, 12300 butterworth penang",https://www.facebook.com/Baby-Sumo-876389545779451/,https://myfave.com/kuala-lumpur/partners/baby-sumo,,Malaysia,Kuala Lumpur,5.4160528,100.3815011,true
Bacchus," 52, Jalan Doraisamy, Chow Kit, 50300 Kuala Lumpur, Wilayah Persekutuan Kuala Lumpur",,https://myfave.com/kuala-lumpur/partners/bacchus,,Malaysia,Kuala Lumpur,3.1583205,101.69954150000001,true
Back To Nature,,https://www.facebook.com/MYBackToNature/,https://myfave.com/kuala-lumpur/partners/back-to-nature,,Malaysia,Kuala Lumpur,,,false
Bacon & Brews,,https://www.facebook.com/baconandbrews/,https://myfave.com/kuala-lumpur/partners/bacon-brews,,Malaysia,Kuala Lumpur,,,false
Bad Ape Yakitori,"20, Persiaran Greentown 10, Greentown Business Centre, 30450 Ipoh, Perak.",https://www.facebook.com/badapeyakitori.my/,https://myfave.com/kuala-lumpur/partners/bad-ape-yakitori,,Malaysia,Kuala Lumpur,4.600076,101.096094,true
Bagstra,"1-37, Jalan Puteri 4/8, Bandar Puteri, 47100 Puchong, Selangor, Malaysia",https://www.facebook.com/bagstra/,https://myfave.com/kuala-lumpur/partners/bagstra,,Malaysia,Kuala Lumpur,3.0158448,101.6131533,true
Baguss City Hotel,,http://bagusshotel.com/,https://myfave.com/kuala-lumpur/partners/baguss-city-hotel,,Malaysia,Kuala Lumpur,,,false
Baguss Hotel & Serviced Apartment,,http://bagusshotel.com/,https://myfave.com/kuala-lumpur/partners/baguss-hotel-serviced-apartment,,Malaysia,Kuala Lumpur,,,false
Bahagia Villa Langkawi,,http://www.hotel-bahagia.com/,https://myfave.com/kuala-lumpur/partners/bahagia-villa-langkawi,,Malaysia,Kuala Lumpur,,,false
Bajiwoa Studio,,,https://myfave.com/kuala-lumpur/partners/bajiwoa-studio,,Malaysia,Kuala Lumpur,,,false
Bake & Brew Cafe,"15, Jalan 52/8, PJ State, 46200 Petaling Jaya, Selangor.",https://www.facebook.com/bakebrewbakerycafe/,https://myfave.com/kuala-lumpur/partners/bake-brew-cafe,,Malaysia,Kuala Lumpur,3.098989,101.646301,true
Bake Plan,"No 36, Jalan SS 2/61, SS 2, 47300 Petaling Jaya, Selangor",,https://myfave.com/kuala-lumpur/partners/bake-plan,,Malaysia,Kuala Lumpur,3.117743,101.62099,true
Bakso Monster,"23a, Jalan Tun Razak, Titiwangsa Sentral, 50400",https://www.facebook.com/BaksoMonster/,https://myfave.com/kuala-lumpur/partners/bakso-monster,,Malaysia,Kuala Lumpur,3.172174,101.694396,true
Bali Aquatic Water Sports,,https://www.baliaquaticwatersport.com/,https://myfave.com/kuala-lumpur/partners/bali-aquatic-water-sports,,Malaysia,Kuala Lumpur,,,false
Baliayu Spa Sanctuary (Bangsar),,http://www.spamalaysia.com.my/,https://myfave.com/kuala-lumpur/partners/baliayu-spa-sanctuary-bangsar,,Malaysia,Kuala Lumpur,,,false
Baliayu Spa Sanctuary (Paradigm Mall),,http://www.spamalaysia.com.my/,https://myfave.com/kuala-lumpur/partners/baliayu-spa-sanctuary-paradigm-mall,,Malaysia,Kuala Lumpur,,,false
Balik Pulau,"Ampang Point, 65, Jalan Mamanda 9, Taman Dato Ahmad Razali, 68000 Ampang, Selangor",,https://myfave.com/kuala-lumpur/partners/balik-pulau,,Malaysia,Kuala Lumpur,3.157817,101.750964,true
Bali Sun Tours,,http://www.balisuntours.com,https://myfave.com/kuala-lumpur/partners/bali-sun-tours,,Malaysia,Kuala Lumpur,,,false
Balloon Two U,,,https://myfave.com/kuala-lumpur/partners/balloon-two-u,,Malaysia,Kuala Lumpur,,,false
Balung Farm Jungle ATV (Sabah Booking),,,https://myfave.com/kuala-lumpur/partners/balung-farm-jungle-atv-sabah-booking,,Malaysia,Kuala Lumpur,,,false
Bangkok2Tour,,http://bangkok2tour.com/,https://myfave.com/kuala-lumpur/partners/bangkok2tour,,Malaysia,Kuala Lumpur,,,false
Bangkok Garden BBQ,"62 Persiaran Gurney (1.76 km)
10250 Penang, Malaysia",https://www.facebook.com/BangkokGardenBBQ/,https://myfave.com/kuala-lumpur/partners/bangkok-garden-bbq,,Malaysia,Kuala Lumpur,5.4320987,100.3156277,true
Bangkok's By Cafaeyen,"2a, Jln Radin Bagus 7, Sri Petaling, 57000 Kuala Lumpur, Wilayah Persekutuan Kuala Lumpur, Malaysia.",https://www.facebook.com/bangkoksmalaysia/,https://myfave.com/kuala-lumpur/partners/bangkoks-by-cafaeyen,,Malaysia,Kuala Lumpur,3.0707974,101.69243000000006,true
Bangkok Village Thai Restaurant,"1, Jalan Gaya 1, Taman Gaya, 81800 Ulu Tiram, Johor.",https://www.facebook.com/Bangkok-Village-Thai-Restaurant-%E6%B3%B0%E7%BE%8E%E5%91%B3%E8%8A%B1%E5%9C%92%E4%B8%BB%E9%A2%98%E9%A4%90%E9%A6%86-142571965896962/,https://myfave.com/kuala-lumpur/partners/bangkok-village-thai-restaurant,,Malaysia,Kuala Lumpur,1.554896,103.800701,true
Bangsar Tennis Coaching,,,https://myfave.com/kuala-lumpur/partners/bangsar-tennis-coaching,,Malaysia,Kuala Lumpur,,,false
Ban Hin Bee (BHB),"Penang International Sports ArenaBayan Baru, 11900 Bayan Lepas, Pulau Pinang",http://www.bhb.com.my/,https://myfave.com/kuala-lumpur/partners/ban-hin-bee-bhb,,Malaysia,Kuala Lumpur,5.3283057,100.28087060000007,true
Bansan Bistro,"Lot UG-08, Level UG,The Sphere, No 1, Avenue 1 No, City, 8, Jalan Kerinchi, Bangsar South, 59200 Kuala Lumpur",,https://myfave.com/kuala-lumpur/partners/bansan-bistro,,Malaysia,Kuala Lumpur,3.111601,101.667312,true
Bao Zhan,"No. 125, Jalan Austin Heights 3, Taman Mount Austin, 81100 Johor Bahru",http://www.baozhan.com.my,https://myfave.com/kuala-lumpur/partners/bao-zhan,,Malaysia,Kuala Lumpur,1.561249,103.778485,true
Barat Mediterranean Vegetarian Restaurant,,https://www.facebook.com/BaratBangsar/?fref=photo,https://myfave.com/kuala-lumpur/partners/barat-mediterranean-vegetarian-restaurant,,Malaysia,Kuala Lumpur,,,false
Bar.B.Q TONIGHT,"Lot 1-10, The Weld Mall, Jalan Raja Chulan, 50200 Kuala Lumpur",http://www.bbqtonight.com.my,https://myfave.com/kuala-lumpur/partners/barbq-tonight,,Malaysia,Kuala Lumpur,3.150945,101.706659,true
Bar.Code Bangsar,"22-1, Jalan Telawi 2, Bangsar Baru, 59100 Kuala Lumpur, Wilayah Persekutuan Kuala Lumpur, Malaysia",https://www.facebook.com/barcodebangsar/,https://myfave.com/kuala-lumpur/partners/barcode-bangsar,,Malaysia,Kuala Lumpur,3.1319027,101.6717851,true
Barcook Bakery,"Unit UG-7, Level Upper Ground, The Sphere No. 1, Avenue 1, Bangsar South City No. 8 Jalan Kerinchi 59200 Kuala Lumpur",http://barcookbakery.com/,https://myfave.com/kuala-lumpur/partners/barcook-bakery,,Malaysia,Kuala Lumpur,3.1107343,101.66760920000002,true
Bardy,"No.8, Jalan Icon City, 14000 Bukit tengah, Bukit mertajam, Penang",,https://myfave.com/kuala-lumpur/partners/bardy,,Malaysia,Kuala Lumpur,5.3450844,100.43453,true
Bareeseta Coffee House,"29G, Jalan Market, Ipoh Oldtown, 30000 Ipoh, Perak.",https://www.facebook.com/Bareeseta-Coffee-House-1184232321686464/,https://myfave.com/kuala-lumpur/partners/bareeseta-coffee-house,,Malaysia,Kuala Lumpur,4.5960046,101.0076684,true
Barista Cafe & Casa De Pizzeria,"129 Jalan Masjid, Kapitan Keling, 10500 Georgetown, Pulau Pinang.",https://www.facebook.com/baristapizzeria/?fref=ts,https://myfave.com/kuala-lumpur/partners/barista-cafe-casa-de-pizzeria,,Malaysia,Kuala Lumpur,5.415957,100.337321,true
Bari Uma,,,https://myfave.com/kuala-lumpur/partners/bari-uma,,Malaysia,Kuala Lumpur,,,false
Bark & Bean,,https://www.facebook.com/pg/barkandbean,https://myfave.com/kuala-lumpur/partners/bark-bean,,Malaysia,Kuala Lumpur,,,false
Barradik Gym & Fitness,,http://www.facebook.com/barradikgym,https://myfave.com/kuala-lumpur/partners/barradik-gym-fitness,,Malaysia,Kuala Lumpur,,,false
Bar Station SS2,,https://www.facebook.com/barstation2u/,https://myfave.com/kuala-lumpur/partners/bar-station-ss2,,Malaysia,Kuala Lumpur,,,false
BASAGA HOLIDAY RESIDENCES,,http://www.basaga.com,https://myfave.com/kuala-lumpur/partners/basaga-holiday-residences,,Malaysia,Kuala Lumpur,,,false
Basilico,"17, Jalan Austin Heights 8/1, Taman Mount Austin, 81100 Johor Bahru, Johor, Malaysia.",https://www.facebook.com/BasilicoAustin/?fref=ts,https://myfave.com/kuala-lumpur/partners/basilico,,Malaysia,Kuala Lumpur,1.5615798,103.7752683,true
Basil Pasta House,"No. 21, Jalan Kuchai Maju 6, Kuchai Entrepreneurs Park, Wilayah Persekutuan, 58200 Kuala Lumpur",,https://myfave.com/kuala-lumpur/partners/basil-pasta-house,,Malaysia,Kuala Lumpur,3.089673,101.685904,true
Bata,,https://www.bata.com.my/,https://myfave.com/kuala-lumpur/partners/bata,,Malaysia,Kuala Lumpur,,,false
Batik Boutique,"3-2, Jalan 26/70a, Desa Sri Hartamas, 50480 Kuala Lumpur, Wilayah Persekutuan Kuala Lumpur, Malaysia",https://www.thebatikboutique.com/,https://myfave.com/kuala-lumpur/partners/batik-boutique,,Malaysia,Kuala Lumpur,3.161596,101.649741,true
Bavarian Bierhaus,,http://www.bavarianbierhaus.com/,https://myfave.com/kuala-lumpur/partners/bavarian-bierhaus-7c2a2e33-87bc-4314-be31-38d504bae38f,,Malaysia,Kuala Lumpur,,,false
Bavarian Bierhaus The Curve,,https://www.facebook.com/thecurvebavarianbierhaus/,https://myfave.com/kuala-lumpur/partners/bavarian-bierhaus-the-curve-8883fe6d-699d-4037-bb49-952c0365e21d,,Malaysia,Kuala Lumpur,,,false
Bayou Lagoon Park Resort,,http://www.bayoulagoon.com.my/,https://myfave.com/kuala-lumpur/partners/bayou-lagoon-park-resort,,Malaysia,Kuala Lumpur,,,false
Bayou Lagoon Park Resort (F&B),,http://www.bayoulagoon.com.my,https://myfave.com/kuala-lumpur/partners/bayou-lagoon-park-resort-fb,,Malaysia,Kuala Lumpur,,,false
Bayou Lagoon Park Resort (Ticket),,http://www.bayoulagoon.com.my/index.aspx?page=home,https://myfave.com/kuala-lumpur/partners/bayou-lagoon-park-resort-ticket,,Malaysia,Kuala Lumpur,,,false
Bayu Spa,,https://www.facebook.com/SpaBlueWaveHotel/,https://myfave.com/kuala-lumpur/partners/bayu-spa,,Malaysia,Kuala Lumpur,,,false
Baywash Auto Detailing Specialist Centre,,,https://myfave.com/kuala-lumpur/partners/baywash-auto-detailing-specialist-centre,,Malaysia,Kuala Lumpur,,,false
B.bap,"Lot GF 08, Ground Floor, NU Sentral Mall, 201, Jalan Tun Sambanthan, Brickfields, 50470 KL",https://www.facebook.com/B.bap.my/,https://myfave.com/kuala-lumpur/partners/bbap,,Malaysia,Kuala Lumpur,3.133484,101.687265,true
BBQ @ Benjis,,,https://myfave.com/kuala-lumpur/partners/bbq-benjis,,Malaysia,Kuala Lumpur,,,false
BBQ Chicken,"No.2, Jalan Midah 2, Taman Midah, 56000 Kuala Lumpur",http://bbqchicken.com.my/,https://myfave.com/kuala-lumpur/partners/bbq-chicken-4e6633c5-bc0f-44eb-bf2e-ae749b8dfb2a,,Malaysia,Kuala Lumpur,3.099281,101.734688,true
BBQ Chicken (Auto City),"1825-G1, Jalan Perusahaan, Auto City
14000 Penang, Malaysia",https://www.facebook.com/BBQ-Chicken-Auto-City-937215393097607/,https://myfave.com/kuala-lumpur/partners/bbq-chicken-auto-city,,Malaysia,Kuala Lumpur,5.3379019,100.4293872,true
BBQ Nights,"Wisma Rohas, Pure Circle, Jalan P.Ramlee, 50450 KL",https://www.facebook.com/bbqnightskl,https://myfave.com/kuala-lumpur/partners/bbq-nights,,Malaysia,Kuala Lumpur,3.154648,101.708569,true
BBQ Nights @ Intermark,"Lower Concourse Floor, The Intermark International Food Hall, The Intermark Mall, Jalan Tun Abdul Razak, Ampang 50400 KL",,https://myfave.com/kuala-lumpur/partners/bbq-nights-intermark,,Malaysia,Kuala Lumpur,3.160913,101.720277,true
BBQ Town,,https://www.facebook.com/pages/BBQ-TOWN/810604849053745?sk=timeline,https://myfave.com/kuala-lumpur/partners/bbq-town,,Malaysia,Kuala Lumpur,,,false
BC Beauty Saloon,,,https://myfave.com/kuala-lumpur/partners/bc-beauty-saloon,,Malaysia,Kuala Lumpur,,,false
BDS Secret Beauty,,https://www.facebook.com/GuinotSignatureSalonPenangFarlim,https://myfave.com/kuala-lumpur/partners/bds-secret-beauty,,Malaysia,Kuala Lumpur,,,false
Beagle Mania,,,https://myfave.com/kuala-lumpur/partners/beagle-mania,,Malaysia,Kuala Lumpur,,,false
BeanGo Cafe,"Ground Floor, Lot 11896, Block 11, Tabuan Stutong Commercial Centre, 93350, Kuching, Sarawak",https://www.facebook.com/BeanGoCafe/,https://myfave.com/kuala-lumpur/partners/beango-cafe,,Malaysia,Kuala Lumpur,1.519715,110.380234,true
Beans And Yogurt,,https://www.facebook.com/beansandyogurt/,https://myfave.com/kuala-lumpur/partners/beans-and-yogurt,,Malaysia,Kuala Lumpur,,,false
Bean Search Expert,,,https://myfave.com/kuala-lumpur/partners/bean-search-expert,,Malaysia,Kuala Lumpur,,,false
Beans & Meat,,https://www.facebook.com/BEANSANDMEAT/,https://myfave.com/kuala-lumpur/partners/beans-meat,,Malaysia,Kuala Lumpur,,,false
Beans N Beans Citta Mall,,http://www.beansnbeans.com.my/,https://myfave.com/kuala-lumpur/partners/beans-n-beans-citta-mall,,Malaysia,Kuala Lumpur,,,false
Beans N Beans Uptown,,http://www.beansnbeans.com.my,https://myfave.com/kuala-lumpur/partners/beans-n-beans-uptown,,Malaysia,Kuala Lumpur,,,false
Bear Inn,"No A-G-1, INTAN BUSINESS CENTRE, 1 LEBOH MEDAN IPOH (179.75 km) 31400 Ipoh, Perak",https://www.facebook.com/Bear-Inn-1044417835690175/,https://myfave.com/kuala-lumpur/partners/bear-inn,,Malaysia,Kuala Lumpur,4.61467,101.12209,true
Beastie Hair Salon,,https://beastiehair.com/,https://myfave.com/kuala-lumpur/partners/beastie-hair-salon,,Malaysia,Kuala Lumpur,,,false
Beatelogy Lounge,,,https://myfave.com/kuala-lumpur/partners/beatelogy-lounge,,Malaysia,Kuala Lumpur,,,false
Beau Clinic,,,https://myfave.com/kuala-lumpur/partners/beau-clinic,,Malaysia,Kuala Lumpur,,,false
Beaueast Brow Art & Skin Aesthetics,,https://www.facebook.com/pages/Beaueast-Embroidery-Aesthetic/283711898453164?sk=info&tab=page_info,https://myfave.com/kuala-lumpur/partners/beaueast-brow-art-skin-aesthetics,,Malaysia,Kuala Lumpur,,,false
BeauMedic,,,https://myfave.com/kuala-lumpur/partners/beaumedic,,Malaysia,Kuala Lumpur,,,false
Beaupearl Cosmetology,,https://www.facebook.com/slimlife.easecox,https://myfave.com/kuala-lumpur/partners/beaupearl-cosmetology,,Malaysia,Kuala Lumpur,,,false
Beaurospa Beauty Centre,,https://www.facebook.com/Beaurospa-Beauty-Centre-1092308837590550/?ref=br_rs,https://myfave.com/kuala-lumpur/partners/beaurospa-beauty-centre,,Malaysia,Kuala Lumpur,,,false
Beauskin Boutique Salon,,https://www.facebook.com/pages/Beauskin-Boutique-Salon/697709060259871,https://myfave.com/kuala-lumpur/partners/beauskin-boutique-salon,,Malaysia,Kuala Lumpur,,,false
Beaute Access,,https://www.facebook.com/pages/Beaut%C3%A9-Access/175304462553126,https://myfave.com/kuala-lumpur/partners/beaute-access,,Malaysia,Kuala Lumpur,,,false
Beaute Care,,http://www.beautecare.net/Beaute_Care/HOME.html,https://myfave.com/kuala-lumpur/partners/beaute-care,,Malaysia,Kuala Lumpur,,,false
Beaute Cosmeceutical,,http://www.dermique.com/,https://myfave.com/kuala-lumpur/partners/beaute-cosmeceutical,,Malaysia,Kuala Lumpur,,,false
Beaute De Studio,,,https://myfave.com/kuala-lumpur/partners/beaute-de-studio,,Malaysia,Kuala Lumpur,,,false
Beaute Esthetique,,https://www.facebook.com/BeautEsthetique,https://myfave.com/kuala-lumpur/partners/beaute-esthetique,,Malaysia,Kuala Lumpur,,,false
Beaute Jan Beauty,,https://www.facebook.com/beautejan/,https://myfave.com/kuala-lumpur/partners/beaute-jan-beauty,,Malaysia,Kuala Lumpur,,,false
Beautelogy Lounge,,https://www.facebook.com/Beautelogy-Lounge-945923118786445/,https://myfave.com/kuala-lumpur/partners/beautelogy-lounge,,Malaysia,Kuala Lumpur,,,false
Beaute Nail,,,https://myfave.com/kuala-lumpur/partners/beaute-nail,,Malaysia,Kuala Lumpur,,,false
Beaute Origine,,,https://myfave.com/kuala-lumpur/partners/beaute-origine,,Malaysia,Kuala Lumpur,,,false
Beauteous (New),,,https://myfave.com/kuala-lumpur/partners/beauteous-new,,Malaysia,Kuala Lumpur,,,false
Beaute' Pro Wellness Centre,,https://www.facebook.com/BeautePro-Wellness-Centre-1541011442830059/,https://myfave.com/kuala-lumpur/partners/beaute-pro-wellness-centre,,Malaysia,Kuala Lumpur,,,false
Beaute Secret Wellness,,,https://myfave.com/kuala-lumpur/partners/beaute-secret-wellness,,Malaysia,Kuala Lumpur,,,false
Beautez Esthetique,,,https://myfave.com/kuala-lumpur/partners/beautez-esthetique,,Malaysia,Kuala Lumpur,,,false
Beauties Stories Facial Salon,,https://www.facebook.com/BeautiesStories/,https://myfave.com/kuala-lumpur/partners/beauties-stories-facial-salon,,Malaysia,Kuala Lumpur,,,false
Beautific Hair And Beauty Meridian Salon,,,https://myfave.com/kuala-lumpur/partners/beautific-hair-and-beauty-meridian-salon,,Malaysia,Kuala Lumpur,,,false
Beautilogy Wellness World,,,https://myfave.com/kuala-lumpur/partners/beautilogy-wellness-world,,Malaysia,Kuala Lumpur,,,false
Beautinics,,,https://myfave.com/kuala-lumpur/partners/beautinics,,Malaysia,Kuala Lumpur,,,false
Beaut Max Saloon,,https://www.facebook.com/beaumaxmy/timeline.,https://myfave.com/kuala-lumpur/partners/beaut-max-saloon,,Malaysia,Kuala Lumpur,,,false
Beautology Beauty & Wellness,,https://www.facebook.com/beautologybw/,https://myfave.com/kuala-lumpur/partners/beautology-beauty-wellness,,Malaysia,Kuala Lumpur,,,false
BeauTouch Embroidery,,,https://myfave.com/kuala-lumpur/partners/beautouch-embroidery,,Malaysia,Kuala Lumpur,,,false
Beauty 580,,,https://myfave.com/kuala-lumpur/partners/beauty-580,,Malaysia,Kuala Lumpur,,,false
Beauty Arts Global Academy,,,https://myfave.com/kuala-lumpur/partners/beauty-arts-global-academy,,Malaysia,Kuala Lumpur,,,false
Beauty Basics,,,https://myfave.com/kuala-lumpur/partners/beauty-basics,,Malaysia,Kuala Lumpur,,,false
Beauty Chapter,,,https://myfave.com/kuala-lumpur/partners/beauty-chapter,,Malaysia,Kuala Lumpur,,,false
Beauty Chateau Day Spa,,https://www.facebook.com/beautychateau.sothys/timeline,https://myfave.com/kuala-lumpur/partners/beauty-chateau-day-spa,,Malaysia,Kuala Lumpur,,,false
Beauty Clinique,,,https://myfave.com/kuala-lumpur/partners/beauty-clinique,,Malaysia,Kuala Lumpur,,,false
Beauty & Confidence,,,https://myfave.com/kuala-lumpur/partners/beauty-confidence,,Malaysia,Kuala Lumpur,,,false
Beauty Cottage Skin Spa,,https://www.facebook.com/beautycottageskinspa/,https://myfave.com/kuala-lumpur/partners/beauty-cottage-skin-spa,,Malaysia,Kuala Lumpur,,,false
Beauty Essential,,,https://myfave.com/kuala-lumpur/partners/beauty-essential,,Malaysia,Kuala Lumpur,,,false
Beauty Esthique,,https://www.facebook.com/pages/Beauty-Esthique/368396476692441?fref=ts,https://myfave.com/kuala-lumpur/partners/beauty-esthique,,Malaysia,Kuala Lumpur,,,false
Beauty Galaxy,,,https://myfave.com/kuala-lumpur/partners/beauty-galaxy,,Malaysia,Kuala Lumpur,,,false
Beautyland Studio,,https://www.facebook.com/beautylandstudio/,https://myfave.com/kuala-lumpur/partners/beautyland-studio,,Malaysia,Kuala Lumpur,,,false
Beauty & Lashes Bar,,https://www.facebook.com/Beauty-Lashes-Bar-437548293248149/,https://myfave.com/kuala-lumpur/partners/beauty-lashes-bar,,Malaysia,Kuala Lumpur,,,false
Beauty Life Studio,,https://www.facebook.com/Beauty-Life-Studio-452762958419030/,https://myfave.com/kuala-lumpur/partners/beauty-life-studio,,Malaysia,Kuala Lumpur,,,false
Beauty Loc 18,,,https://myfave.com/kuala-lumpur/partners/beauty-loc-18,,Malaysia,Kuala Lumpur,,,false
Beauty Lounge,"6b, Jalan USJ 10/1, Taipan Business Centre, 47620 Subang Jaya, Selangor",,https://myfave.com/kuala-lumpur/partners/beauty-lounge,,Malaysia,Kuala Lumpur,3.0479099,101.583684617,true
Beautymax Aesthetics And Wellness,,,https://myfave.com/kuala-lumpur/partners/beautymax-aesthetics-and-wellness,,Malaysia,Kuala Lumpur,,,false
Beauty Mei Cosmetic,,,https://myfave.com/kuala-lumpur/partners/beauty-mei-cosmetic,,Malaysia,Kuala Lumpur,,,false
Beauty Scent Slimming Centre,,,https://myfave.com/kuala-lumpur/partners/beauty-scent-slimming-centre,,Malaysia,Kuala Lumpur,,,false
Beauty Secret Room,,http://www.facebook.com/pages/Beauty-Secret-Room/461838690566407,https://myfave.com/kuala-lumpur/partners/beauty-secret-room,,Malaysia,Kuala Lumpur,,,false
Beauty Secret & Spa Lounge,,https://www.facebook.com/Beauty-Secret-De-Cario-Japan-121833247985473/,https://myfave.com/kuala-lumpur/partners/beauty-secret-spa-lounge-2e2f167f-272e-4e40-9785-735e085cd84d,,Malaysia,Kuala Lumpur,,,false
Beauty Sense,,https://www.facebook.com/Beauty-Sense-630101804010323/,https://myfave.com/kuala-lumpur/partners/beauty-sense,,Malaysia,Kuala Lumpur,,,false
Beauty Shop (Penang),,http://www.beautyshop.my/,https://myfave.com/kuala-lumpur/partners/beauty-shop-penang,,Malaysia,Kuala Lumpur,,,false
Beauty Skin,,http://www.beautyskinspa.com/index.php/en/,https://myfave.com/kuala-lumpur/partners/beauty-skin,,Malaysia,Kuala Lumpur,,,false
Beauty Story,,https://www.facebook.com/beautystory.business,https://myfave.com/kuala-lumpur/partners/beauty-story,,Malaysia,Kuala Lumpur,,,false
Be Beauty Century,,https://www.facebook.com/be.beauty.century12/,https://myfave.com/kuala-lumpur/partners/be-beauty-century,,Malaysia,Kuala Lumpur,,,false
Be Beauty Salon,,https://www.facebook.com/Be-Beauty-Salon-173462326015922/,https://myfave.com/kuala-lumpur/partners/be-beauty-salon,,Malaysia,Kuala Lumpur,,,false
Bebebutterfly / Plain B,"161, Jalan Raja Uda, Pusat Perniagaan Raja Uda, 12300 Butterworth, Pulau Pinang, Malaysia.",http://www.bebebutterfly.com/,https://myfave.com/kuala-lumpur/partners/bebebutterfly-plain-b,,Malaysia,Kuala Lumpur,5.421105,100.380906,true
Be Be's Kitchen,,http://www.hotelkualalumpur.net/hotelcapitolbb/facilities.html,https://myfave.com/kuala-lumpur/partners/be-bes-kitchen,,Malaysia,Kuala Lumpur,,,false
Becare Beauty And Spa,,https://www.facebook.com/becarebeautyandspa/,https://myfave.com/kuala-lumpur/partners/becare-beauty-and-spa,,Malaysia,Kuala Lumpur,,,false
Bedazzle Beauty Aesthetic (KFit),,http://www.bedazzlebeauty.com.my/,https://myfave.com/kuala-lumpur/partners/bedazzle-beauty-aesthetic-kfit,,Malaysia,Kuala Lumpur,,,false
Bedazzle Beauty Aesthetics,,https://www.facebook.com/BedazzleBeautyAesthetic/,https://myfave.com/kuala-lumpur/partners/bedazzle-beauty-aesthetics,,Malaysia,Kuala Lumpur,,,false
Bedelakona Enterprise,"No 5 PPR Jalan Air Jernih, Setapak 53300 Kuala Lumpur",,https://myfave.com/kuala-lumpur/partners/bedelakona-enterprise,,Malaysia,Kuala Lumpur,3.188,101.721,true
BeeBee Nail,,http://www.bmic.com.my/,https://myfave.com/kuala-lumpur/partners/beebee-nail,,Malaysia,Kuala Lumpur,,,false
BeeBop Circus,,http://www.beebopcircus.com,https://myfave.com/kuala-lumpur/partners/beebop-circus,,Malaysia,Kuala Lumpur,,,false
Bee Gaik Dining Place,"No. 10-10A, Tingkat Taman Ipoh 11, Ipoh Garden South, 31400, Ipoh, Perak, Malaysia",http://beegaikdining.com.my,https://myfave.com/kuala-lumpur/partners/bee-gaik-dining-place,,Malaysia,Kuala Lumpur,4.60836,101.1170255,true
Beernest Mixo,"15, Anjung Samudera, The Waterfront, 88000 Kota Kinabalu",https://www.facebook.com/BEERNESTKKWATERFRONT/,https://myfave.com/kuala-lumpur/partners/beernest-mixo,,Malaysia,Kuala Lumpur,5.978967,116.06996600000002,true
Beer Shack,"12, Jalan 22a/70a, Desa Sri Hartamas, 50480 Kuala Lumpur, Wilayah Persekutuan Kuala Lumpur",,https://myfave.com/kuala-lumpur/partners/beer-shack,,Malaysia,Kuala Lumpur,3.1628085,101.6500663,true
BEE Shop,"Setia City Convention Centre, 1, Jln Setia Dagang AG U13/AG, Setia Alam Seksyen U13, 40170 Shah Alam, Selangor
",,https://myfave.com/kuala-lumpur/partners/bee-shop,,Malaysia,Kuala Lumpur,3.110055,101.462853,true
Beeyock Esthetics,,,https://myfave.com/kuala-lumpur/partners/beeyock-esthetics,,Malaysia,Kuala Lumpur,,,false
Begonia Beauty Therapy,,https://www.facebook.com/Begoniabeauty94/,https://myfave.com/kuala-lumpur/partners/begonia-beauty-therapy,,Malaysia,Kuala Lumpur,,,false
Behind 50,"Behind 50, Love Lane, Georgetown, 10200 George Town, Penang, Malaysia",https://www.facebook.com/Behind50LoveLane/,https://myfave.com/kuala-lumpur/partners/behind-50,,Malaysia,Kuala Lumpur,5.419556099999999,100.33692930000007,true
BE Janitorial Venture,,,https://myfave.com/kuala-lumpur/partners/be-janitorial-venture,,Malaysia,Kuala Lumpur,,,false
Belco Hair Studio,,https://www.facebook.com/belcohairstudio/,https://myfave.com/kuala-lumpur/partners/belco-hair-studio,,Malaysia,Kuala Lumpur,,,false
Beleza Hair Salon,,,https://myfave.com/kuala-lumpur/partners/beleza-hair-salon,,Malaysia,Kuala Lumpur,,,false
Believe Face And Body Beauty Center,,,https://myfave.com/kuala-lumpur/partners/believe-face-and-body-beauty-center,,Malaysia,Kuala Lumpur,,,false
Believe Fitness,,,https://myfave.com/kuala-lumpur/partners/believe-fitness,,Malaysia,Kuala Lumpur,,,false
Believe Museum,,http://www.believelangkawi.com,https://myfave.com/kuala-lumpur/partners/believe-museum,,Malaysia,Kuala Lumpur,,,false
Belif Skincare Cosmetics,"Sunway Pyramid, 3, Jalan PJS 11/15, Bandar Sunway, 46150 Petaling Jaya, Selangor, Malaysia",,https://myfave.com/kuala-lumpur/partners/belif-skincare-cosmetics,,Malaysia,Kuala Lumpur,3.0721369,101.60689509999997,true
Bella Skin Care,,https://www.bellaskin.com.my/,https://myfave.com/kuala-lumpur/partners/bella-skin-care-e9c150f8-9d2e-4a3a-9f0d-cad6b3d6dbc5,,Malaysia,Kuala Lumpur,,,false
Belle Concept,,,https://myfave.com/kuala-lumpur/partners/belle-concept,,Malaysia,Kuala Lumpur,,,false
Belle Femme,,www.facebook.com/bellefemmecheras/,https://myfave.com/kuala-lumpur/partners/belle-femme,,Malaysia,Kuala Lumpur,,,false
Belle Femme Skin Solution,,,https://myfave.com/kuala-lumpur/partners/belle-femme-skin-solution,,Malaysia,Kuala Lumpur,,,false
Belle Hair & Nail Coiffure,,http://www.impiana.com.my,https://myfave.com/kuala-lumpur/partners/belle-hair-nail-coiffure,,Malaysia,Kuala Lumpur,,,false
Belle Nails Spa & Waxing,,https://www.facebook.com/bellenailsspa/,https://myfave.com/kuala-lumpur/partners/belle-nails-spa-waxing,,Malaysia,Kuala Lumpur,,,false
Belle's Secrets Beauty House,,http://www.bellessecrets.com/,https://myfave.com/kuala-lumpur/partners/belles-secrets-beauty-house,,Malaysia,Kuala Lumpur,,,false
Belle Wellness Beauty,,,https://myfave.com/kuala-lumpur/partners/belle-wellness-beauty,,Malaysia,Kuala Lumpur,,,false
Bellezza Artistica,,,https://myfave.com/kuala-lumpur/partners/bellezza-artistica,,Malaysia,Kuala Lumpur,,,false
Bello Dream Salon,,,https://myfave.com/kuala-lumpur/partners/bello-dream-salon,,Malaysia,Kuala Lumpur,,,false
Bellzza Beauty & Wellness,,https://web.facebook.com/bellzzabeautyandwellness/,https://myfave.com/kuala-lumpur/partners/bellzza-beauty-wellness,,Malaysia,Kuala Lumpur,,,false
Beloved Skincare,"B-G-29 Kompleks Suria Kinrara, Persiaran Kinrara, Taman Kinrara, 47190 Puchong, Selangor, Malaysia",,https://myfave.com/kuala-lumpur/partners/beloved-skincare,,Malaysia,Kuala Lumpur,3.061825,101.64209900000003,true
Belukar Lodges,,http://www.Facebook.com/Belukarlodges,https://myfave.com/kuala-lumpur/partners/belukar-lodges,,Malaysia,Kuala Lumpur,,,false
Beluxury Make-Up Studio,,,https://myfave.com/kuala-lumpur/partners/beluxury-make-up-studio,,Malaysia,Kuala Lumpur,,,false
Ben & Henry Dessert Cafe,"LOt 22-1 First Floor, Block D, Royal Plaza Putatan  88200 Putatan, Kota Kinabalu Sabah",https://www.facebook.com/BenHenryDessertCafe/,https://myfave.com/kuala-lumpur/partners/ben-henry-dessert-cafe,,Malaysia,Kuala Lumpur,5.890359,116.04998,true
Ben-Li Express,,,https://myfave.com/kuala-lumpur/partners/ben-li-express,,Malaysia,Kuala Lumpur,,,false
Bentong Happy Farm,,http://bentonghappyfarm.com,https://myfave.com/kuala-lumpur/partners/bentong-happy-farm,,Malaysia,Kuala Lumpur,,,false
Bentoya,"90, Jalan Peel, Maluri, 55100 Kuala Lumpur, Wilayah Persekutuan Kuala Lumpur",,https://myfave.com/kuala-lumpur/partners/bentoya,,Malaysia,Kuala Lumpur,3.1268313,101.7244753,true
Beriani Asif,"R-08, MSuite, 283 Jalan Ampang, Ampang Hilir 55000 KL",https://www.facebook.com/berianiasif2/,https://myfave.com/kuala-lumpur/partners/beriani-asif,,Malaysia,Kuala Lumpur,3.160402,101.735477,true
Beringgis Beach Resort & Spa,,http://www.beringgisbeachresort.com,https://myfave.com/kuala-lumpur/partners/beringgis-beach-resort-spa,,Malaysia,Kuala Lumpur,,,false
Berjaya Langkawi Resort (About Travel),,http://www.abouttravel.my,https://myfave.com/kuala-lumpur/partners/berjaya-langkawi-resort-about-travel,,Malaysia,Kuala Lumpur,,,false
Berjaya Waterfront Hotel,,https://www.berjayahotel.com/johorbahru,https://myfave.com/kuala-lumpur/partners/berjaya-waterfront-hotel-6a62a899-65e2-478c-b6bb-c81a0268fd15,,Malaysia,Kuala Lumpur,,,false
Berlinz Square,"29c-02-14 Karpal Singh Drive 2, Maritime Piazza
11600 George Town, Malaysia",https://www.facebook.com/BerlinzSquarePenang/,https://myfave.com/kuala-lumpur/partners/berlinz-square,,Malaysia,Kuala Lumpur,5.398535,100.329266,true
Bert’s Cafe,"No 36, Jalan Selasih K, U12/K, Taman Cahaya Alam, S U12, 40170 Shah Alam.",,https://myfave.com/kuala-lumpur/partners/berts-cafe,,Malaysia,Kuala Lumpur,3.086003,101.485432,true
Bestmart Carwash Center,,,https://myfave.com/kuala-lumpur/partners/bestmart-carwash-center,,Malaysia,Kuala Lumpur,,,false
Best Point Furniture & Electric,"No 29-1-15,16&17, Golden Triangle, Jalan Paya Terubong, Relau 11900, Pulau Pinang.",,https://myfave.com/kuala-lumpur/partners/best-point-furniture-electric,,Malaysia,Kuala Lumpur,5.3311269,100.27646619999996,true
Between The City And Stars,,http://www.lightbox.com.my/index.php/event/detail/1,https://myfave.com/kuala-lumpur/partners/between-the-city-and-stars,,Malaysia,Kuala Lumpur,,,false
Be'U Hair Studio,,,https://myfave.com/kuala-lumpur/partners/beu-hair-studio,,Malaysia,Kuala Lumpur,,,false
Beulitha Beauty House,,http://beulithabeautyhous.wixsite.com/beulitha,https://myfave.com/kuala-lumpur/partners/beulitha-beauty-house,,Malaysia,Kuala Lumpur,,,false
Beverly Hotel,,http://www.beverlyhotel.biz,https://myfave.com/kuala-lumpur/partners/beverly-hotel,,Malaysia,Kuala Lumpur,,,false
Beverlyn Beauty,,https://www.facebook.com/Beverlyn-Beauty-429581944088446/,https://myfave.com/kuala-lumpur/partners/beverlyn-beauty,,Malaysia,Kuala Lumpur,,,false
Beyond Beauty,,http://www.beyondbeauty.com.my/,https://myfave.com/kuala-lumpur/partners/beyond-beauty,,Malaysia,Kuala Lumpur,,,false
Beyoutiful Esthetic Academy,,https://www.facebook.com/beyoutifulestheticsbykelsey/,https://myfave.com/kuala-lumpur/partners/beyoutiful-esthetic-academy,,Malaysia,Kuala Lumpur,,,false
B.Forty Food & Beverages,"154, Jalan Lumba Kuda, Bukit Chagar, 80300 Johor Bahru, Johor, Malaysia",https://www.facebook.com/B.forty/,https://myfave.com/kuala-lumpur/partners/bforty-food-beverages,,Malaysia,Kuala Lumpur,1.461958,103.767089,true
Bhaju Couture,"Jalan 14/17, Seksyen 14, 46100 Petaling Jaya, Selangor, Malaysia",,https://myfave.com/kuala-lumpur/partners/bhaju-couture,,Malaysia,Kuala Lumpur,3.1093245,101.63720439999997,true
Bheerily Beauty And Fitness Centre,,http://bheerilybeauty.webb.my/,https://myfave.com/kuala-lumpur/partners/bheerily-beauty-and-fitness-centre-e6ef1ff7-b441-4916-85c2-9aa460179b7a,,Malaysia,Kuala Lumpur,,,false
BieHive Sunway,"No 24-9, JLN PJS 11/28, 46150 Bandar Sunway, Petaling Jaya",,https://myfave.com/kuala-lumpur/partners/biehive-sunway,,Malaysia,Kuala Lumpur,3.0724999,101.60956,true
Bielenda Malaysia - B.skin,,https://www.facebook.com/bskin212/?ref=br_rs,https://myfave.com/kuala-lumpur/partners/bielenda-malaysia-bskin,,Malaysia,Kuala Lumpur,,,false
Big Apple Restaurant,"1, Jalan Imbi, 55100 Kuala Lumpur, Wilayah Persekutuan Kuala Lumpur",http://www.berjayahotel.com/kualalumpur/dining/big-apple-restaurant.html,https://myfave.com/kuala-lumpur/partners/big-apple-restaurant-6732708f-6c98-4677-8d3e-d832dd2d4c60,,Malaysia,Kuala Lumpur,3.142426,101.709644,true
Big Ben Breakfast & Western,"Kuarters D,MK18 Jalan kebun bunga
10350 Penang, Malaysia",https://www.facebook.com/Big-Ben-Breakfast-Western-219783768037592/,https://myfave.com/kuala-lumpur/partners/big-ben-breakfast-western,,Malaysia,Kuala Lumpur,5.4350178,100.2925325,true
Big Bowl Ramen,"26, Jalan Market, 30000, Ipoh, Perak Darul Ridzuan.",,https://myfave.com/kuala-lumpur/partners/big-bowl-ramen,,Malaysia,Kuala Lumpur,4.59595,101.0775615,true
Big Chef Corner,,,https://myfave.com/kuala-lumpur/partners/big-chef-corner,,Malaysia,Kuala Lumpur,,,false
